[{"OBJECT_NAME":"A-SEANSAT-PG1","OBJECT_ID":"2023-091AH","EPOCH":"2026-03-09T22:32:06.495648","MEAN_MOTION":15.33422293,"ECCENTRICITY":0.00088895,"INCLINATION":97.5184,"RA_OF_ASC_NODE":136.6191,"ARG_OF_PERICENTER":78.3219,"MEAN_ANOMALY":281.902,"EPHEMERIS_TYPE":0,"CLASSIFICATION_TYPE":"U","NORAD_CAT_ID":57197,"ELEMENT_SET_NO":999,"REV_AT_EPOCH":14948,"BSTAR":0.0007038551,"MEAN_MOTION_DOT":0.00022724,"MEAN_MOTION_DDOT":0},{"OBJECT_NAME":"STARLINK-32862","OBJECT_ID":"2025-022L","EPOCH":"2026-03-09T12:54:16.799616","MEAN_MOTION":15.30119489,"ECCENTRICITY":6.118e-5,"INCLINATION":53.1575,"RA_OF_ASC_NODE":130.5473,"ARG_OF_PERICENTER":156.5334,"MEAN_ANOMALY":203.5695,"EPHEMERIS_TYPE":0,"CLASSIFICATION_TYPE":"U","NORAD_CAT_ID":62864,"ELEMENT_SET_NO":999,"REV_AT_EPOCH":6187,"BSTAR":0.00038388629,"MEAN_MOTION_DOT":0.00011,"MEAN_MOTION_DDOT":0}]
